{
    "links": {
        "self": "http://www.neowsapp.com/rest/v1/neo/3788153?api_key=iIulBulltgU6a56xZRHN4H3l9WmuAYTsLGpBGhQ2"
    },
    "id": "3788153",
    "neo_reference_id": "3788153",
    "name": "(2017 UO43)",
    "designation": "2017 UO43",
    "nasa_jpl_url": "http://ssd.jpl.nasa.gov/sbdb.cgi?sstr=3788153",
    "absolute_magnitude_h": 27.9,
    "estimated_diameter": {
        "kilometers": {
            "estimated_diameter_min": 0.0069912523,
            "estimated_diameter_max": 0.0156329154
        },
        "meters": {
            "estimated_diameter_min": 6.9912523225,
            "estimated_diameter_max": 15.6329154409
        },
        "miles": {
            "estimated_diameter_min": 0.0043441614,
            "estimated_diameter_max": 0.0097138403
        },
        "feet": {
            "estimated_diameter_min": 22.9371802696,
            "estimated_diameter_max": 51.289094295
        }
    },
    "is_potentially_hazardous_asteroid": false,
    "close_approach_data": [
        {
            "close_approach_date": "1970-12-12",
            "close_approach_date_full": "1970-Dec-12 04:29",
            "epoch_date_close_approach": 29824140000,
            "relative_velocity": {
                "kilometers_per_second": "8.815508187",
                "kilometers_per_hour": "31735.8294731198",
                "miles_per_hour": "19719.4102634504"
            },
            "miss_distance": {
                "astronomical": "0.1493012175",
                "lunar": "58.0781736075",
                "kilometers": "22335144.126406725",
                "miles": "13878415.009493805"
            },
            "orbiting_body": "Earth"
        },
        {
            "close_approach_date": "2017-10-31",
            "close_approach_date_full": "2017-Oct-31 00:43",
            "epoch_date_close_approach": 1509410580000,
            "relative_velocity": {
                "kilometers_per_second": "5.6546842698",
                "kilometers_per_hour": "20356.8633712719",
                "miles_per_hour": "12648.9632431106"
            },
            "miss_distance": {
                "astronomical": "0.0168720548",
                "lunar": "6.5632293172",
                "kilometers": "2524023.460603276",
                "miles": "1568355.4528101688"
            },
            "orbiting_body": "Earth"
        }
    ],
    "orbital_data": {
        "orbit_id": "2",
        "orbit_determination_date": "2019-07-10 05:35:59",
        "first_observation_date": "2017-10-28",
        "last_observation_date": "2017-10-30",
        "data_arc_in_days": 2,
        "observations_used": 20,
        "orbit_uncertainty": "7",
        "minimum_orbit_intersection": ".0144642",
        "jupiter_tisserand_invariant": "4.441",
        "epoch_osculation": "2459000.5",
        "eccentricity": ".3398975389453545",
        "semi_major_axis": "1.516932675402816",
        "inclination": "5.827774579531428",
        "ascending_node_longitude": "218.7688555642729",
        "orbital_period": "682.413934613699",
        "perihelion_distance": "1.001330992287607",
        "perihelion_argument": "192.33651012",
        "aphelion_distance": "2.032534358518026",
        "perihelion_time": "2458751.732819883043",
        "mean_anomaly": "131.2344023174151",
        "mean_motion": ".5275390517982153",
        "equinox": "J2000",
        "orbit_class": {
            "orbit_class_type": "APO",
            "orbit_class_description": "Near-Earth asteroid orbits which cross the Earth’s orbit similar to that of 1862 Apollo",
            "orbit_class_range": "a (semi-major axis) > 1.0 AU; q (perihelion) < 1.017 AU"
        }
    },
    "is_sentry_object": false
}